[Satellite]
VERSION=1.1
NAME=IRIDIUM 914 [-]
NICKNAME=IRIDIUM 914 [-]
TLE1=1 24836U 97030A   18020.73732723  .00000108  00000-0  28798-4 0  9994
TLE2=2 24836  86.3928 242.9126 0003701 103.0005 257.1607 14.38802079218121
